OBJECT_NAME,OBJECT_ID,EPOCH,MEAN_MOTION,ECCENTRICITY,INCLINATION,RA_OF_ASC_NODE,ARG_OF_PERICENTER,MEAN_ANOMALY,EPHEMERIS_TYPE,CLASSIFICATION_TYPE,NORAD_CAT_ID,ELEMENT_SET_NO,REV_AT_EPOCH,BSTAR,MEAN_MOTION_DOT,MEAN_MOTION_DDOT
NPSAT1,2019-036B,2026-05-09T04:49:28.502976,14.74220705,.0008292,23.9976,111.5919,129.8562,230.2664,0,U,44340,999,36673,.6017E-3,.4312E-4,0
FORMOSAT 7-3,2019-036E,2026-05-09T02:54:46.799136,15.09507119,.0000921,23.9985,87.3467,152.3836,207.6717,0,U,44343,999,37733,.20594E-3,.3733E-4,0
FORMOSAT 7-1,2019-036L,2026-05-08T18:31:03.082944,14.96345266,.00011118,23.9985,298.0879,75.1815,284.8809,0,U,44349,999,37874,.18413676E-3,.2437E-4,0
FORMOSAT 7-4,2019-036M,2026-05-08T22:15:16.628256,14.96339129,.0001347,23.9998,359.1402,89.5646,270.5009,0,U,44350,999,37818,.18193E-3,.2411E-4,0
FORMOSAT 7-2,2019-036N,2026-05-09T03:35:31.901856,14.96336629,.0000907,23.9987,51.9543,97.4987,262.5616,0,U,44351,999,37773,.15753E-3,.2128E-4,0
FORMOSAT 7-6,2019-036Q,2026-05-08T22:47:24.488736,14.96349557,.0001264,23.9972,234.1246,21.3729,338.6825,0,U,44353,999,37593,.17033E-3,.2277E-4,0
FORMOSAT 7-5,2019-036V,2026-05-08T19:02:44.038464,14.96347802,.0000828,23.9974,173.9256,88.2951,271.7645,0,U,44358,999,37644,.14899218E-3,.2029E-4,0
METEOR-M2 2,2019-038A,2026-05-09T02:49:03.595008,14.24354790,.0002197,98.9142,115.8307,108.4705,251.6712,0,U,44387,999,35573,.9105E-5,-.25E-6,0
GLOBAL-4,2019-054E,2026-05-09T03:25:07.242816,15.60783441,.0003739,45.0059,101.0376,70.1961,289.9338,0,U,44499,999,37425,.46252E-3,.39286E-3,0
ZY-1 02D,2019-059A,2026-05-09T04:10:42.671136,14.35447337,.0000596,98.3204,192.0356,170.5374,189.5823,0,U,44528,999,34874,-.41556E-4,-.161E-5,0
TAURUS-1 (JINNIUZUO 1),2019-059C,2026-05-09T03:41:19.677408,14.71676753,.0009585,98.6393,291.5805,78.7560,281.4722,0,U,44530,999,35290,.78483E-3,.484E-4,0
ZHUHAI-1 03B,2019-060C,2026-05-09T04:47:30.434784,15.51958592,.0010025,97.5490,284.9409,102.0801,258.1575,0,U,44536,999,37027,.43325E-3,.26024E-3,0
ZHUHAI-1 03C,2019-060D,2026-05-09T04:53:05.909568,15.92645397,.0003695,97.5503,297.2428,336.8686,23.2421,0,U,44537,999,37103,.82767E-3,.281126E-2,.32024E-4
ZHUHAI-1 03D,2019-060E,2026-05-09T04:40:54.655392,15.47585822,.0008497,97.5349,277.4007,89.7446,270.4777,0,U,44538,999,37004,.52335E-3,.26956E-3,0
ZHUHAI-1 03E,2019-060F,2026-05-09T04:51:06.695712,15.39806028,.000679,97.5568,277.8502,153.5978,206.5614,0,U,44539,999,36976,.39688E-3,.15672E-3,0
GAOFEN-7,2019-072A,2026-05-08T14:31:48.311328,15.21297547,.00169653,97.2450,191.5555,169.1173,191.0434,0,U,44703,999,36162,.16308284E-3,.3594E-4,0
JILIN-1 GAOFEN 2A,2019-075A,2026-05-09T04:22:19.288416,15.38266921,.0005917,97.4957,212.0950,209.8509,150.2399,0,U,44777,999,35888,.31649E-3,.11859E-3,0
NINGXIA-1 1,2019-076A,2026-05-09T03:10:20.769312,14.02034700,.0011559,45.0073,354.3809,330.5831,29.4352,0,U,44779,999,33237,.71255E-4,-.2E-6,0
NINGXIA-1 5,2019-076E,2026-05-09T05:14:01.269600,14.02082244,.0011507,45.0075,353.3541,321.5507,38.4507,0,U,44783,999,33230,-.20737E-4,-.162E-5,0
KL-ALPHA A,2019-077A,2026-05-09T05:36:43.098624,13.56038899,.0009891,88.9256,226.8204,213.1622,146.8913,0,U,44785,999,32045,.18051E-3,.139E-5,0
CARTOSAT-3,2019-081A,2026-05-09T03:58:45.122592,15.19180437,.0011113,97.4325,191.6536,290.0638,69.9400,0,U,44804,999,35754,.75543E-4,.1522E-4,0
JILIN-1 GAOFEN 2B,2019-086A,2026-05-09T04:29:31.761888,15.20267750,.0015801,97.4888,201.4340,96.6479,263.6555,0,U,44836,999,35456,.21942E-3,.4708E-4,0
TIANQIN 1 (CAS-6),2019-093A,2026-05-09T05:03:42.783840,14.95245713,.0011185,97.7795,213.3401,176.4438,183.6864,0,U,44879,999,34622,.15612E-3,.1661E-4,0
ETRSS-1,2019-093B,2026-05-09T05:29:06.675936,14.95645323,.001159,97.7802,213.7831,178.2341,181.8923,0,U,44880,999,34623,.28634E-3,.3128E-4,0
TIANYAN 01,2019-093C,2026-05-09T04:54:21.604608,14.86453438,.0012733,97.7533,202.3859,210.2695,149.7787,0,U,44881,999,34562,.24966E-4,.167E-5,0
TIANYAN 02,2019-093D,2026-05-09T05:22:17.124384,15.04731654,.0014699,97.7893,223.6608,152.0989,208.1028,0,U,44882,999,34675,.40058E-3,.5594E-4,0
CBERS 4A,2019-093E,2026-05-09T04:32:48.122304,14.81640807,.00013,97.7506,197.6767,1.0579,359.0637,0,U,44883,999,34530,.2825E-5,-.28E-6,0
WEILAI 1R,2019-093F,2026-05-09T04:12:56.628288,15.00307455,.0014894,97.7825,219.0222,158.2247,201.9612,0,U,44884,999,34657,.31804E-3,.3935E-4,0
