NPSAT1                  
1 44340U 19036B   26129.20102434  .00004312  00000+0  60170-3 0  9996
2 44340  23.9976 111.5919 0008292 129.8562 230.2664 14.74220705366734
FORMOSAT 7-3            
1 44343U 19036E   26129.12137499  .00003733  00000+0  20594-3 0  9991
2 44343  23.9985  87.3467 0000921 152.3836 207.6717 15.09507119377332
FORMOSAT 7-1            
1 44349U 19036L   26128.77156346  .00002437  00000+0  18414-3 0  9997
2 44349  23.9985 298.0879 0001111  75.1815 284.8809 14.96345266378740
FORMOSAT 7-4            
1 44350U 19036M   26128.92727579  .00002411  00000+0  18193-3 0  9994
2 44350  23.9998 359.1402 0001347  89.5646 270.5009 14.96339129378182
FORMOSAT 7-2            
1 44351U 19036N   26129.14967479  .00002128  00000+0  15753-3 0  9999
2 44351  23.9987  51.9543 0000907  97.4987 262.5616 14.96336629377738
FORMOSAT 7-6            
1 44353U 19036Q   26128.94958899  .00002277  00000+0  17033-3 0  9992
2 44353  23.9972 234.1246 0001264  21.3729 338.6825 14.96349557375937
FORMOSAT 7-5            
1 44358U 19036V   26128.79356526  .00002029  00000+0  14899-3 0  9991
2 44358  23.9974 173.9256 0000828  88.2951 271.7645 14.96347802376444
METEOR-M2 2             
1 44387U 19038A   26129.11740272 -.00000025  00000+0  91050-5 0  9998
2 44387  98.9142 115.8307 0002197 108.4705 251.6712 14.24354790355736
GLOBAL-4                
1 44499U 19054E   26129.14244494  .00039286  00000+0  46252-3 0  9990
2 44499  45.0059 101.0376 0003739  70.1961 289.9338 15.60783441374251
ZY-1 02D                
1 44528U 19059A   26129.17410499 -.00000161  00000+0 -41556-4 0  9996
2 44528  98.3204 192.0356 0000596 170.5374 189.5823 14.35447337348747
TAURUS-1 (JINNIUZUO 1)  
1 44530U 19059C   26129.15369997  .00004840  00000+0  78483-3 0  9997
2 44530  98.6393 291.5805 0009585  78.7560 281.4722 14.71676753352908
ZHUHAI-1 03B            
1 44536U 19060C   26129.19965781  .00026024  00000+0  43325-3 0  9997
2 44536  97.5490 284.9409 0010025 102.0801 258.1575 15.51958592370276
ZHUHAI-1 03C            
1 44537U 19060D   26129.20354062  .00281126  32024-4  82767-3 0  9999
2 44537  97.5503 297.2428 0003695 336.8686  23.2421 15.92645397371030
ZHUHAI-1 03D            
1 44538U 19060E   26129.19507703  .00026956  00000+0  52335-3 0  9990
2 44538  97.5349 277.4007 0008497  89.7446 270.4777 15.47585822370041
ZHUHAI-1 03E            
1 44539U 19060F   26129.20216083  .00015672  00000+0  39688-3 0  9990
2 44539  97.5568 277.8502 0006790 153.5978 206.5614 15.39806028369765
GAOFEN-7                
1 44703U 19072A   26128.60542027  .00003594  00000+0  16308-3 0  9993
2 44703  97.2450 191.5555 0016965 169.1173 191.0434 15.21297547361626
JILIN-1 GAOFEN 2A       
1 44777U 19075A   26129.18216769  .00011859  00000+0  31649-3 0  9990
2 44777  97.4957 212.0950 0005917 209.8509 150.2399 15.38266921358880
NINGXIA-1 1             
1 44779U 19076A   26129.13218483 -.00000020  00000+0  71255-4 0  9990
2 44779  45.0073 354.3809 0011559 330.5831  29.4352 14.02034700332372
NINGXIA-1 5             
1 44783U 19076E   26129.21807025 -.00000162  00000+0 -20737-4 0  9997
2 44783  45.0075 353.3541 0011507 321.5507  38.4507 14.02082244332305
KL-ALPHA A              
1 44785U 19077A   26129.23383216  .00000139  00000+0  18051-3 0  9990
2 44785  88.9256 226.8204 0009891 213.1622 146.8913 13.56038899320454
CARTOSAT-3              
1 44804U 19081A   26129.16580003  .00001522  00000+0  75543-4 0  9999
2 44804  97.4325 191.6536 0011113 290.0638  69.9400 15.19180437357549
JILIN-1 GAOFEN 2B       
1 44836U 19086A   26129.18717317  .00004708  00000+0  21942-3 0  9993
2 44836  97.4888 201.4340 0015801  96.6479 263.6555 15.20267750354561
TIANQIN 1 (CAS-6)       
1 44879U 19093A   26129.21091185  .00001661  00000+0  15612-3 0  9992
2 44879  97.7795 213.3401 0011185 176.4438 183.6864 14.95245713346225
ETRSS-1                 
1 44880U 19093B   26129.22854949  .00003128  00000+0  28634-3 0  9998
2 44880  97.7802 213.7831 0011590 178.2341 181.8923 14.95645323346238
TIANYAN 01              
1 44881U 19093C   26129.20441672  .00000167  00000+0  24966-4 0  9997
2 44881  97.7533 202.3859 0012733 210.2695 149.7787 14.86453438345620
TIANYAN 02              
1 44882U 19093D   26129.22380931  .00005594  00000+0  40058-3 0  9998
2 44882  97.7893 223.6608 0014699 152.0989 208.1028 15.04731654346753
CBERS 4A                
1 44883U 19093E   26129.18944586 -.00000028  00000+0  28250-5 0  9996
2 44883  97.7506 197.6767 0001300   1.0579 359.0637 14.81640807345309
WEILAI 1R               
1 44884U 19093F   26129.17565542  .00003935  00000+0  31804-3 0  9993
2 44884  97.7825 219.0222 0014894 158.2247 201.9612 15.00307455346577
